NORAD_CAT_ID,OBJECT_NAME,OBJECT_TYPE,EPOCH,MEAN_MOTION,ECCENTRICITY,INCLINATION,RA_OF_ASC_NODE,ARG_OF_PERICENTER,MEAN_ANOMALY,BSTAR,MEAN_MOTION_DOT,MEAN_MOTION_DDOT,TLE_LINE0,TLE_LINE1,TLE_LINE2,SEMIMAJOR_AXIS,PERIOD,APOGEE,PERIGEE,DECAYED
56772.0,STARLINK-6275,PAYLOAD,2023-07-07 20:00:01,15.51296999,0.0003493,69.998,308.0801,277.5168,123.4065,-0.0019178,-0.00111538,0.0,0 STARLINK-6275,1 56772U 23078F   23188.83334491 -.00111538  00000-0 -19178-2 0  9993,2 56772  69.9980 308.0801 0003493 277.5168 123.4065 15.51296999  6198,6791.075,92.826,415.312,410.568,0.0
56772.0,STARLINK-6275,PAYLOAD,2023-07-08 04:00:00,15.51171463,0.0003467,69.9982,307.1687,271.4576,190.4297,0.0016154,0.00095699,0.0,0 STARLINK-6275,1 56772U 23078F   23189.16667824  .00095699  00000-0  16154-2 0  9997,2 56772  69.9982 307.1687 0003467 271.4576 190.4297 15.51171463  6244,6791.442,92.833,415.661,410.952,0.0
56772.0,STARLINK-6275,PAYLOAD,2023-07-08 12:00:00,15.51251171,0.0003512,69.9984,306.2574,273.5715,249.2019,-0.00086174,-0.00050512,0.0,0 STARLINK-6275,1 56772U 23078F   23189.50001157 -.00050512  00000-0 -86174-3 0  9993,2 56772  69.9984 306.2574 0003512 273.5715 249.2019 15.51251171  6295,6791.209,92.828,415.459,410.689,0.0
56772.0,STARLINK-6275,PAYLOAD,2023-07-09 04:00:00,15.51200807,0.0003435,69.9978,304.4341,266.1064,18.502,-0.016136,-0.00864061,0.0,0 STARLINK-6275,1 56772U 23078F   23190.16667824 -.00864061  00000-0 -16136-1 0  9997,2 56772  69.9978 304.4341 0003435 266.1064  18.5020 15.51200807  6401,6791.356,92.831,415.554,410.888,0.0
56772.0,STARLINK-6275,PAYLOAD,2023-07-09 12:00:00,15.50565264,0.0003401,69.998,303.523,270.0707,75.0525,-0.017641,-0.00930737,0.0,0 STARLINK-6275,1 56772U 23078F   23190.50001157 -.00930737  00000-0 -17641-1 0  9992,2 56772  69.9980 303.5230 0003401 270.0707  75.0525 15.50565264  6455,6793.212,92.869,417.387,412.766,0.0
56772.0,STARLINK-6275,PAYLOAD,2023-07-10 20:00:01,15.47975894,0.00031,69.9971,299.8879,271.9849,307.3348,-0.019813,-0.00952052,0.0,0 STARLINK-6275,1 56772U 23078F   23191.83334491 -.00952052  00000-0 -19813-1 0  9996,2 56772  69.9971 299.8879 0003100 271.9849 307.3348 15.47975894  6661,6800.785,93.025,424.758,420.542,0.0
56772.0,STARLINK-6275,PAYLOAD,2023-07-11 12:00:00,15.46637553,0.0003387,69.9978,298.0756,269.8493,61.8982,-0.019708,-0.00907708,0.0,0 STARLINK-6275,1 56772U 23078F   23192.50001157 -.00907708  00000-0 -19708-1 0  9992,2 56772  69.9978 298.0756 0003387 269.8493  61.8982 15.46637553  6764,6804.708,93.105,428.877,424.268,0.0
56772.0,STARLINK-6275,PAYLOAD,2023-07-12 12:00:00,15.44682719,0.0003287,69.9977,295.3635,272.0316,222.4638,-0.021152,-0.00910597,0.0,0 STARLINK-6275,1 56772U 23078F   23193.50001157 -.00910597  00000-0 -21152-1 0  9999,2 56772  69.9977 295.3635 0003287 272.0316 222.4638 15.44682719  6910,6810.447,93.223,434.551,430.074,0.0
56772.0,STARLINK-6275,PAYLOAD,2023-07-13 18:00:00,15.4224904,0.0003253,69.9976,291.9852,273.7669,324.2538,-0.023066,-0.00914113,0.0,0 STARLINK-6275,1 56772U 23078F   23194.75001157 -.00914113  00000-0 -23066-1 0  9991,2 56772  69.9976 291.9852 0003253 273.7669 324.2538 15.42249040  7111,6817.61,93.37,441.693,437.257,0.0
56772.0,STARLINK-6275,PAYLOAD,2023-07-14 12:00:00,15.40767972,0.0003439,69.998,289.9648,273.7462,165.1258,-0.02408,-0.00908722,0.0,0 STARLINK-6275,1 56772U 23078F   23195.50001157 -.00908722  00000-0 -24080-1 0  9991,2 56772  69.9980 289.9648 0003439 273.7462 165.1258 15.40767972  7223,6821.979,93.46,446.19,441.497,0.0
56772.0,STARLINK-6275,PAYLOAD,2023-07-15 12:00:00,15.38807892,0.0003415,69.9982,287.2772,271.3135,309.1872,-0.02558,-0.00905106,0.0,0 STARLINK-6275,1 56772U 23078F   23196.50001157 -.00905106  00000-0 -25580-1 0  9991,2 56772  69.9982 287.2772 0003415 271.3135 309.1872 15.38807892  7381,6827.77,93.579,451.967,447.304,0.0
56772.0,STARLINK-6275,PAYLOAD,2023-07-16 12:00:00,15.36854936,0.0003618,69.9981,284.5977,272.9479,82.136,-0.027372,-0.00908519,0.0,0 STARLINK-6275,1 56772U 23078F   23197.50001157 -.00908519  00000-0 -27372-1 0  9994,2 56772  69.9981 284.5977 0003618 272.9479  82.1360 15.36854936  7536,6833.553,93.698,457.891,452.946,0.0
56772.0,STARLINK-6275,PAYLOAD,2023-07-17 12:00:00,15.3488735,0.0003454,69.9978,281.9262,274.047,208.5856,-0.028524,-0.00890159,0.0,0 STARLINK-6275,1 56772U 23078F   23198.50001157 -.00890159  00000-0 -28524-1 0  9995,2 56772  69.9978 281.9262 0003454 274.0470 208.5856 15.34887350  7686,6839.392,93.818,463.619,458.895,0.0
56772.0,STARLINK-6275,PAYLOAD,2023-07-18 04:00:00,15.33606134,0.0003261,69.9975,280.1498,267.8437,295.8925,-0.030317,-0.00906786,0.0,0 STARLINK-6275,1 56772U 23078F   23199.16667824 -.00906786  00000-0 -30317-1 0  9994,2 56772  69.9975 280.1498 0003261 267.8437 295.8925 15.33606134  7790,6843.201,93.896,467.297,462.834,0.0
56772.0,STARLINK-6275,PAYLOAD,2023-07-18 20:00:01,15.32329958,0.0003354,69.997,278.3768,273.3702,8.3535,-0.034123,-0.00986728,0.0,0 STARLINK-6275,1 56772U 23078F   23199.83334491 -.00986728  00000-0 -34123-1 0  9992,2 56772  69.9970 278.3768 0003354 273.3702   8.3535 15.32329958  7894,6847.0,93.975,471.161,466.568,0.0
56772.0,STARLINK-6275,PAYLOAD,2023-07-19 04:00:00,15.31655364,0.0003418,69.9973,277.4919,268.5796,50.9662,-0.032598,-0.00916062,0.0,0 STARLINK-6275,1 56772U 23078F   23200.16667824 -.00916062  00000-0 -32598-1 0  9998,2 56772  69.9973 277.4919 0003418 268.5796  50.9662 15.31655364  7947,6849.01,94.016,473.216,468.534,0.0
56772.0,STARLINK-6275,PAYLOAD,2023-07-19 20:00:01,15.3036788,0.0003297,69.9967,275.724,273.1034,119.7392,-0.035932,-0.00977908,0.0,0 STARLINK-6275,1 56772U 23078F   23200.83334491 -.00977908  00000-0 -35932-1 0  9994,2 56772  69.9967 275.7240 0003297 273.1034 119.7392 15.30367880  8048,6852.851,94.095,476.975,472.456,0.0
56772.0,STARLINK-6275,PAYLOAD,2023-07-20 04:00:00,15.29701766,0.0003256,69.997,274.8415,268.8966,159.4191,-0.034893,-0.00922081,0.0,0 STARLINK-6275,1 56772U 23078F   23201.16667824 -.00922081  00000-0 -34893-1 0  9997,2 56772  69.9970 274.8415 0003256 268.8966 159.4191 15.29701766  8092,6854.84,94.136,478.937,474.473,0.0
56772.0,STARLINK-6275,PAYLOAD,2023-07-21 04:00:00,15.27749496,0.0003108,69.9967,272.1989,267.6304,262.4143,-0.037391,-0.00941487,0.0,0 STARLINK-6275,1 56772U 23078F   23202.16667824 -.00941487  00000-0 -37391-1 0  9995,2 56772  69.9967 272.1989 0003108 267.6304 262.4143 15.27749496  8254,6860.679,94.256,484.676,480.411,0.0
56772.0,STARLINK-6275,PAYLOAD,2023-07-24 14:00:01,15.21032704,0.0003088,69.9965,263.2279,276.3148,278.2006,-0.043282,-0.00894629,0.0,0 STARLINK-6275,1 56772U 23078F   23205.58334491 -.00894629  00000-0 -43282-1 0  9996,2 56772  69.9965 263.2279 0003088 276.3148 278.2006 15.21032704  2242,6880.861,94.673,504.851,500.602,0.0
56772.0,STARLINK-6275,PAYLOAD,2023-07-25 14:00:01,15.19080645,0.0003117,69.9965,260.6196,274.8458,350.3656,-0.04626,-0.00902602,0.0,0 STARLINK-6275,1 56772U 23078F   23206.58335648 -.00902602  00000-0 -46260-1 0  9992,2 56772  69.9965 260.6196 0003117 274.8458 350.3656 15.19080645  2406,6886.755,94.794,510.766,506.473,0.0
56772.0,STARLINK-6275,PAYLOAD,2023-07-26 14:00:01,15.17127693,0.0003203,69.9966,258.0192,275.3906,53.3503,-0.04932,-0.00909052,0.0,0 STARLINK-6275,1 56772U 23078F   23207.58334491 -.00909052  00000-0 -49320-1 0  9994,2 56772  69.9966 258.0192 0003203 275.3906  53.3503 15.17127693  2554,6892.664,94.916,516.736,512.321,0.0
56772.0,STARLINK-6275,PAYLOAD,2023-07-26 22:00:01,15.16439263,0.0003169,69.9965,257.1542,269.9595,78.4922,-0.047168,-0.00856186,0.0,0 STARLINK-6275,1 56772U 23078F   23207.91668981 -.00856186  00000-0 -47168-1 0  9992,2 56772  69.9965 257.1542 0003169 269.9595  78.4922 15.16439263  2603,6894.75,94.959,518.799,514.43,0.0
56772.0,STARLINK-6275,PAYLOAD,2023-07-27 04:00:00,15.16023442,0.0003167,69.9968,256.5061,267.0551,5.5187,-0.054577,-0.00969656,0.0,0 STARLINK-6275,1 56772U 23078F   23208.16667824 -.00969656  00000-0 -54577-1 0  9994,2 56772  69.9968 256.5061 0003167 267.0551   5.5187 15.16023442  9164,6896.01,94.985,520.059,515.691,0.0
56772.0,STARLINK-6275,PAYLOAD,2023-07-27 14:00:01,15.15172982,0.0003227,69.9967,255.4267,276.9286,108.3658,-0.052379,-0.00912719,0.0,0 STARLINK-6275,1 56772U 23078F   23208.58334491 -.00912719  00000-0 -52379-1 0  9997,2 56772  69.9967 255.4267 0003227 276.9286 108.3658 15.15172982  2701,6898.59,95.039,522.682,518.229,0.0
56772.0,STARLINK-6275,PAYLOAD,2023-07-27 20:00:01,15.14671444,0.000309,69.9965,254.7798,271.6602,36.6813,-0.052986,-0.00910402,0.0,0 STARLINK-6275,1 56772U 23078F   23208.83334491 -.00910402  00000-0 -52986-1 0  9996,2 56772  69.9965 254.7798 0003090 271.6602  36.6813 15.14671444  9262,6900.113,95.07,524.11,519.846,0.0
56772.0,STARLINK-6275,PAYLOAD,2023-07-27 22:00:00,15.14479873,0.0003164,69.9966,254.5642,270.7925,131.8032,-0.049509,-0.0085037,0.0,0 STARLINK-6275,1 56772U 23078F   23208.91667824 -.00850370  00000-0 -49509-1 0  9998,2 56772  69.9966 254.5642 0003164 270.7925 131.8032 15.14479873  2760,6900.695,95.082,524.743,520.377,0.0
56772.0,STARLINK-6275,PAYLOAD,2023-07-28 14:00:01,15.13217299,0.0003158,69.9966,252.8421,277.9226,156.8846,-0.055497,-0.00914869,0.0,0 STARLINK-6275,1 56772U 23078F   23209.58334491 -.00914869  00000-0 -55497-1 0  9990,2 56772  69.9966 252.8421 0003158 277.9226 156.8846 15.13217299  2864,6904.533,95.161,528.578,524.218,0.0
56772.0,STARLINK-6275,PAYLOAD,2023-07-28 20:00:01,15.12708887,0.000311,69.9965,252.1972,271.9367,84.1594,-0.05534,-0.00900445,0.0,0 STARLINK-6275,1 56772U 23078F   23209.83334491 -.00900445  00000-0 -55340-1 0  9990,2 56772  69.9965 252.1972 0003110 271.9367  84.1594 15.12708887  9413,6906.08,95.193,530.093,525.797,0.0
56772.0,STARLINK-6275,PAYLOAD,2023-07-29 12:00:00,15.11408464,0.0003176,69.9966,250.4798,275.902,108.112,-0.056628,-0.0088938,0.0,0 STARLINK-6275,1 56772U 23078F   23210.50001157 -.00889380  00000-0 -56628-1 0  9990,2 56772  69.9966 250.4798 0003176 275.9020 108.1120 15.11408464  9513,6910.041,95.275,534.1,529.711,0.0
